start=new Date('2022-12-17T00:00:00.000Z').valueOf();
sats=[{"MEAN_MOTION_DOT":"0.00001962","OBJECT_TYPE":"PAYLOAD","SEMIMAJOR_AXIS":"6917.860","EPHEMERIS_TYPE":"0","PERIAPSIS":"538.192","REF_FRAME":"TEME","FILE":"3705029","TLE_LINE2":"2 53172  53.2181  52.0489 0002215  29.5373 330.5744 15.08846817 23422","OBJECT_ID":"2022-083AS","GP_ID":"220666023","CENTER_NAME":"EARTH","REV_AT_EPOCH":"2342","ARG_OF_PERICENTER":"29.5373","OBJECT_NAME":"STARLINK-4299","RA_OF_ASC_NODE":"52.0489","MEAN_MOTION_DDOT":"0.0000000000000","ELEMENT_SET_NO":"999","CLASSIFICATION_TYPE":"U","INCLINATION":"53.2181","APOAPSIS":"541.257","MEAN_ELEMENT_THEORY":"SGP4","LAUNCH_DATE":"2022-07-17","TLE_LINE1":"1 53172U 22083AS  22350.64602768  .00001962  00000-0  14135-3 0  9999","ECCENTRICITY":"0.00022150","BSTAR":"0.00014135000000","DECAY_DATE":null,"PERIOD":"95.437","RCS_SIZE":"LARGE","NORAD_CAT_ID":"53172","SITE":"AFETR","MEAN_ANOMALY":"330.5744","TIME_SYSTEM":"UTC","EPOCH":"2022-12-16T15:30:16.791552","MEAN_MOTION":"15.08846817","COUNTRY_CODE":"US"},{"RA_OF_ASC_NODE":"32.2912","CLASSIFICATION_TYPE":"U","ELEMENT_SET_NO":"999","MEAN_MOTION_DDOT":"0.0000000000000","OBJECT_ID":"2022-083AT","GP_ID":"220664964","TLE_LINE2":"2 53173  53.2160  32.2912 0001582  58.5415 301.5731 15.08837595 23692","REV_AT_EPOCH":"2369","CENTER_NAME":"EARTH","ARG_OF_PERICENTER":"58.5415","OBJECT_NAME":"STARLINK-4300","PERIAPSIS":"538.658","REF_FRAME":"TEME","FILE":"3705029","SEMIMAJOR_AXIS":"6917.888","OBJECT_TYPE":"PAYLOAD","MEAN_MOTION_DOT":"-0.00000376","EPHEMERIS_TYPE":"0","MEAN_MOTION":"15.08837595","COUNTRY_CODE":"US","SITE":"AFETR","MEAN_ANOMALY":"301.5731","NORAD_CAT_ID":"53173","TIME_SYSTEM":"UTC","RCS_SIZE":"LARGE","EPOCH":"2022-12-16T14:13:26.670720","TLE_LINE1":"1 53173U 22083AT  22350.59266980 -.00000376  00000-0 -55431-5 0  9992","BSTAR":"-0.00000554310000","ECCENTRICITY":"0.00015820","DECAY_DATE":null,"PERIOD":"95.438","INCLINATION":"53.2160","APOAPSIS":"540.847","MEAN_ELEMENT_THEORY":"SGP4","LAUNCH_DATE":"2022-07-17"},{"EPOCH":"2022-12-16T16:27:51.723648","RCS_SIZE":"LARGE","SITE":"AFETR","NORAD_CAT_ID":"53174","MEAN_ANOMALY":"317.6434","TIME_SYSTEM":"UTC","COUNTRY_CODE":"US","MEAN_MOTION":"15.08839430","LAUNCH_DATE":"2022-07-17","MEAN_ELEMENT_THEORY":"SGP4","APOAPSIS":"541.073","INCLINATION":"53.2199","PERIOD":"95.438","DECAY_DATE":null,"ECCENTRICITY":"0.00019170","BSTAR":"0.00003725200000","TLE_LINE1":"1 53174U 22083AU  22350.68601532  .00000305  00000-0  37252-4 0  9999","OBJECT_NAME":"STARLINK-4205","ARG_OF_PERICENTER":"42.4706","CENTER_NAME":"EARTH","REV_AT_EPOCH":"2322","TLE_LINE2":"2 53174  53.2199  66.8790 0001917  42.4706 317.6434 15.08839430 23226","GP_ID":"220665619","OBJECT_ID":"2022-083AU","MEAN_MOTION_DDOT":"0.0000000000000","ELEMENT_SET_NO":"999","CLASSIFICATION_TYPE":"U","RA_OF_ASC_NODE":"66.8790","EPHEMERIS_TYPE":"0","OBJECT_TYPE":"PAYLOAD","MEAN_MOTION_DOT":"0.00000305","SEMIMAJOR_AXIS":"6917.882","FILE":"3705029","REF_FRAME":"TEME","PERIAPSIS":"538.421"},{"ARG_OF_PERICENTER":"25.1953","OBJECT_NAME":"STARLINK-4292","OBJECT_ID":"2022-083AV","GP_ID":"220665829","TLE_LINE2":"2 53175  53.2183  66.6010 0002386  25.1953 334.9155 15.08842963 23234","REV_AT_EPOCH":"2323","CENTER_NAME":"EARTH","CLASSIFICATION_TYPE":"U","MEAN_MOTION_DDOT":"0.0000000000000","ELEMENT_SET_NO":"999","RA_OF_ASC_NODE":"66.6010","EPHEMERIS_TYPE":"0","SEMIMAJOR_AXIS":"6917.871","MEAN_MOTION_DOT":"0.00000553","OBJECT_TYPE":"PAYLOAD","REF_FRAME":"TEME","FILE":"3705029","PERIAPSIS":"538.086","NORAD_CAT_ID":"53175","SITE":"AFETR","MEAN_ANOMALY":"334.9155","TIME_SYSTEM":"UTC","RCS_SIZE":"LARGE","EPOCH":"2022-12-16T17:57:56.651904","COUNTRY_CODE":"US","MEAN_MOTION":"15.08842963","APOAPSIS":"541.387","LAUNCH_DATE":"2022-07-17","MEAN_ELEMENT_THEORY":"SGP4","INCLINATION":"53.2183","DECAY_DATE":null,"PERIOD":"95.437","TLE_LINE1":"1 53175U 22083AV  22350.74857236  .00000553  00000-0  52857-4 0  9994","BSTAR":"0.00005285700000","ECCENTRICITY":"0.00023860"},{"EPOCH":"2022-12-16T18:15:53.236512","RCS_SIZE":"LARGE","SITE":"AFETR","MEAN_ANOMALY":"325.1501","NORAD_CAT_ID":"53176","TIME_SYSTEM":"UTC","MEAN_MOTION":"15.08837874","COUNTRY_CODE":"US","INCLINATION":"53.2192","LAUNCH_DATE":"2022-07-17","MEAN_ELEMENT_THEORY":"SGP4","APOAPSIS":"541.342","ECCENTRICITY":"0.00022980","BSTAR":"0.00009973800000","TLE_LINE1":"1 53176U 22083AW  22350.76103283  .00001299  00000-0  99738-4 0  9990","PERIOD":"95.438","DECAY_DATE":null,"CENTER_NAME":"EARTH","REV_AT_EPOCH":"2358","TLE_LINE2":"2 53176  53.2192  41.5286 0002298  34.9642 325.1501 15.08837874 23587","OBJECT_ID":"2022-083AW","GP_ID":"220666429","OBJECT_NAME":"STARLINK-4294","ARG_OF_PERICENTER":"34.9642","RA_OF_ASC_NODE":"41.5286","MEAN_MOTION_DDOT":"0.0000000000000","ELEMENT_SET_NO":"999","CLASSIFICATION_TYPE":"U","OBJECT_TYPE":"PAYLOAD","MEAN_MOTION_DOT":"0.00001299","SEMIMAJOR_AXIS":"6917.887","EPHEMERIS_TYPE":"0","PERIAPSIS":"538.162","FILE":"3705029","REF_FRAME":"TEME"},{"CLASSIFICATION_TYPE":"U","ELEMENT_SET_NO":"999","MEAN_MOTION_DDOT":"0.0000000000000","RA_OF_ASC_NODE":"32.0263","ARG_OF_PERICENTER":"67.3088","OBJECT_NAME":"STARLINK-4298","OBJECT_ID":"2022-083AX","GP_ID":"220665411","TLE_LINE2":"2 53177  53.2153  32.0263 0001437  67.3088 292.8056 15.08833270 23708","REV_AT_EPOCH":"2370","CENTER_NAME":"EARTH","REF_FRAME":"TEME","FILE":"3705029","PERIAPSIS":"538.772","EPHEMERIS_TYPE":"0","SEMIMAJOR_AXIS":"6917.901","OBJECT_TYPE":"PAYLOAD","MEAN_MOTION_DOT":"-0.00001560","COUNTRY_CODE":"US","MEAN_MOTION":"15.08833270","MEAN_ANOMALY":"292.8056","SITE":"AFETR","NORAD_CAT_ID":"53177","TIME_SYSTEM":"UTC","RCS_SIZE":"LARGE","EPOCH":"2022-12-16T15:38:15.014688","DECAY_DATE":null,"PERIOD":"95.438","TLE_LINE1":"1 53177U 22083AX  22350.65156267 -.00001560  00000-0 -79985-4 0  9994","BSTAR":"-0.00007998500000","ECCENTRICITY":"0.00014370","APOAPSIS":"540.760","MEAN_ELEMENT_THEORY":"SGP4","LAUNCH_DATE":"2022-07-17","INCLINATION":"53.2153"},{"ELEMENT_SET_NO":"999","MEAN_MOTION_DDOT":"0.0000000000000","CLASSIFICATION_TYPE":"U","RA_OF_ASC_NODE":"57.2110","OBJECT_NAME":"STARLINK-4280","ARG_OF_PERICENTER":"27.8271","CENTER_NAME":"EARTH","REV_AT_EPOCH":"2334","TLE_LINE2":"2 53178  53.2172  57.2110 0002987  27.8271 332.2881 15.08851796 23344","GP_ID":"220665172","OBJECT_ID":"2022-083AY","FILE":"3705029","REF_FRAME":"TEME","PERIAPSIS":"537.643","EPHEMERIS_TYPE":"0","MEAN_MOTION_DOT":"0.00006898","OBJECT_TYPE":"PAYLOAD","SEMIMAJOR_AXIS":"6917.844","COUNTRY_CODE":"US","MEAN_MOTION":"15.08851796","EPOCH":"2022-12-16T14:37:54.739776","RCS_SIZE":"LARGE","SITE":"AFETR","TIME_SYSTEM":"UTC","NORAD_CAT_ID":"53178","MEAN_ANOMALY":"332.2881","PERIOD":"95.437","DECAY_DATE":null,"ECCENTRICITY":"0.00029870","BSTAR":"0.00045092000000","TLE_LINE1":"1 53178U 22083AY  22350.60966134  .00006898  00000-0  45092-3 0  9990","LAUNCH_DATE":"2022-07-17","MEAN_ELEMENT_THEORY":"SGP4","APOAPSIS":"541.776","INCLINATION":"53.2172"},{"EPOCH":"2022-12-16T22:00:00.999936","RCS_SIZE":"LARGE","SITE":"AFETR","MEAN_ANOMALY":"213.5368","NORAD_CAT_ID":"53179","TIME_SYSTEM":"UTC","COUNTRY_CODE":"US","MEAN_MOTION":"15.31221093","LAUNCH_DATE":"2022-07-17","MEAN_ELEMENT_THEORY":"SGP4","APOAPSIS":"473.254","INCLINATION":"53.2174","PERIOD":"94.043","DECAY_DATE":null,"ECCENTRICITY":"0.00015830","BSTAR":"-0.04067000000000","TLE_LINE1":"1 53179U 22083AZ  22350.91667824 -.01134092  00000-0 -40670-1 0  9995","ARG_OF_PERICENTER":"45.6164","OBJECT_NAME":"STARLINK-4276","CENTER_NAME":"EARTH","REV_AT_EPOCH":"130","TLE_LINE2":"2 53179  53.2174  16.1454 0001583  45.6164 213.5368 15.31221093  1302","OBJECT_ID":"2022-083AZ","GP_ID":"220666234","ELEMENT_SET_NO":"999","MEAN_MOTION_DDOT":"0.0000000000000","CLASSIFICATION_TYPE":"U","RA_OF_ASC_NODE":"16.1454","EPHEMERIS_TYPE":"0","MEAN_MOTION_DOT":"-0.01134092","OBJECT_TYPE":"PAYLOAD","SEMIMAJOR_AXIS":"6850.305","FILE":"3705029","REF_FRAME":"TEME","PERIAPSIS":"471.086"},{"TLE_LINE1":"1 53180U 22083BA  22350.91667824 -.01134174  00000-0 -42767-1 0  9997","BSTAR":"-0.04276700000000","ECCENTRICITY":"0.00018050","DECAY_DATE":null,"PERIOD":"94.142","INCLINATION":"53.2173","APOAPSIS":"478.212","MEAN_ELEMENT_THEORY":"SGP4","LAUNCH_DATE":"2022-07-17","MEAN_MOTION":"15.29611391","COUNTRY_CODE":"US","NORAD_CAT_ID":"53180","SITE":"AFETR","MEAN_ANOMALY":"170.5012","TIME_SYSTEM":"UTC","RCS_SIZE":"LARGE","EPOCH":"2022-12-16T22:00:00.999936","PERIAPSIS":"475.738","REF_FRAME":"TEME","FILE":"3705029","SEMIMAJOR_AXIS":"6855.110","OBJECT_TYPE":"PAYLOAD","MEAN_MOTION_DOT":"-0.01134174","EPHEMERIS_TYPE":"0","RA_OF_ASC_NODE":"16.2418","CLASSIFICATION_TYPE":"U","ELEMENT_SET_NO":"999","MEAN_MOTION_DDOT":"0.0000000000000","GP_ID":"220666024","OBJECT_ID":"2022-083BA","TLE_LINE2":"2 53180  53.2173  16.2418 0001805  39.8051 170.5012 15.29611391  1300","REV_AT_EPOCH":"130","CENTER_NAME":"EARTH","OBJECT_NAME":"STARLINK-4258","ARG_OF_PERICENTER":"39.8051"},{"EPHEMERIS_TYPE":"0","SEMIMAJOR_AXIS":"6854.443","MEAN_MOTION_DOT":"-0.01134137","OBJECT_TYPE":"PAYLOAD","REF_FRAME":"TEME","FILE":"3705029","PERIAPSIS":"475.173","OBJECT_NAME":"STARLINK-4273","ARG_OF_PERICENTER":"45.9618","GP_ID":"220664965","OBJECT_ID":"2022-083BB","TLE_LINE2":"2 53181  53.2173  16.2267 0001656  45.9618 172.2749 15.29834786  1305","REV_AT_EPOCH":"130","CENTER_NAME":"EARTH","CLASSIFICATION_TYPE":"U","MEAN_MOTION_DDOT":"0.0000000000000","ELEMENT_SET_NO":"999","RA_OF_ASC_NODE":"16.2267","APOAPSIS":"477.443","LAUNCH_DATE":"2022-07-17","MEAN_ELEMENT_THEORY":"SGP4","INCLINATION":"53.2173","DECAY_DATE":null,"PERIOD":"94.128","TLE_LINE1":"1 53181U 22083BB  22350.91667824 -.01134137  00000-0 -42471-1 0  9999","BSTAR":"-0.04247100000000","ECCENTRICITY":"0.00016560","SITE":"AFETR","NORAD_CAT_ID":"53181","MEAN_ANOMALY":"172.2749","TIME_SYSTEM":"UTC","RCS_SIZE":"LARGE","EPOCH":"2022-12-16T22:00:00.999936","COUNTRY_CODE":"US","MEAN_MOTION":"15.29834786"}];
